OBJECT_NAME,OBJECT_ID,EPOCH,MEAN_MOTION,ECCENTRICITY,INCLINATION,RA_OF_ASC_NODE,ARG_OF_PERICENTER,MEAN_ANOMALY,EPHEMERIS_TYPE,CLASSIFICATION_TYPE,NORAD_CAT_ID,ELEMENT_SET_NO,REV_AT_EPOCH,BSTAR,MEAN_MOTION_DOT,MEAN_MOTION_DDOT
ZHONGXING-1E,2022-112A,2026-06-10T03:24:42.553152,1.00270045,.00002162,0.0491,105.6297,209.7143,75.7405,0,U,53813,999,1377,0,-.131E-5,0
SES-20,2022-123A,2026-06-10T05:57:25.768224,1.00268740,.0001912,0.0333,74.6926,19.9730,150.2127,0,U,53960,999,1346,0,-.83E-6,0
SES-21,2022-123B,2026-06-09T11:21:50.399136,1.00270189,.00008828,0.0268,34.5519,42.4615,220.2829,0,U,53961,999,713,0,.86E-6,0
GALAXY 33 (G-33),2022-128A,2026-06-10T05:44:48.098112,1.00271606,.00017948,0.0097,315.2442,130.7369,125.8396,0,U,54026,999,1367,0,.96E-6,0
GALAXY 34 (G-34),2022-128B,2026-06-08T23:02:06.902304,1.00274719,.00018617,0.0154,329.7482,136.9348,7.2031,0,U,54027,999,1383,0,.75E-6,0
EUTELSAT HOTBIRD 13F,2022-134A,2026-06-09T03:07:56.720640,1.00271656,.00020851,0.0486,290.4942,68.8413,318.1724,0,U,54048,999,1329,0,.104E-5,0
LDPE-2,2022-144A,2026-06-09T14:54:45.421056,1.00529150,.00018044,5.5939,63.7111,99.4907,153.9382,0,U,54219,999,1176,0,.145E-5,0
EUTELSAT HOTBIRD 13G,2022-146A,2026-06-10T06:30:32.802336,1.00271190,.00019653,0.0479,233.5628,308.7900,186.9201,0,U,54225,999,739,0,.105E-5,0
ZHONGXING-19,2022-148A,2026-06-10T05:30:44.804736,1.00271464,.00023263,0.0168,286.9694,178.4458,39.0580,0,U,54230,999,1331,0,-.64E-6,0
GALAXY 31 (G-31),2022-153A,2026-06-10T05:52:18.758784,1.00272139,.00012332,0.0153,287.9232,150.1222,147.6497,0,U,54243,999,706,0,.31E-6,0
GALAXY 32 (G-32),2022-153B,2026-06-09T07:46:18.681312,1.00270919,.00021646,0.0091,331.9838,65.0548,246.2445,0,U,54244,999,1306,0,-.157E-5,0
EUTELSAT 10B,2022-157A,2026-06-10T03:51:38.494944,1.00266919,.00017977,0.0611,101.8065,11.8744,212.7759,0,U,54259,999,1295,0,.85E-6,0
GALAXY 35 (G-35),2022-170A,2026-06-09T11:00:24.946848,1.00271145,.00020317,0.0337,106.4075,335.1959,248.2408,0,U,54741,999,1281,0,-.145E-5,0
GALAXY 36 (G-36),2022-170B,2026-06-10T06:01:25.384800,1.00270518,.00026057,0.0078,28.5141,55.3387,176.1198,0,U,54742,999,1270,0,-.168E-5,0
METEOSAT-12 (MTG-I1),2022-170C,2026-06-10T06:26:40.673184,1.00271666,.00033084,0.7302,21.7319,71.7629,261.3806,0,U,54743,999,1290,0,.9E-7,0
SHIJIAN-23 (SJ-23),2023-002A,2026-06-09T15:46:36.940800,1.00089548,.0003825,3.6971,78.4065,274.2638,295.0863,0,U,55131,999,1243,0,-.193E-5,0
APSTAR-6E,2023-005A,2026-06-08T15:10:50.553120,1.00271697,.00009926,0.0214,248.8845,305.5776,64.2622,0,U,55239,999,1860,0,-.301E-5,0
USA 342,2023-008A,2026-06-07T06:41:44.493216,1.00272218,.0000352,0.0030,157.3806,136.6587,85.8740,0,U,55263,999,1241,0,.152E-5,0
LDPE-3A,2023-008B,2026-06-10T04:21:12.088224,0.99145879,.00011367,2.3285,81.7494,56.6105,104.8658,0,U,55264,999,1174,0,-.64E-6,0
ELEKTRO-L 4,2023-016A,2026-06-09T19:44:01.906656,1.00272782,.00008053,0.0721,175.6888,0.3795,183.9436,0,U,55506,999,1226,0,-.4E-6,0
AMAZONAS NEXUS,2023-017A,2026-06-08T13:05:34.396800,1.00269716,.00051349,0.0356,30.7430,32.4463,329.1618,0,U,55508,999,695,0,-.266E-5,0
ZHONGXING-26,2023-023A,2026-06-08T19:06:40.279392,1.00269750,.00040592,0.0661,71.5230,14.9674,222.4710,0,U,55686,999,1214,0,-.337E-5,0
LUCH-5X (OLYMP-K 2),2023-031A,2026-06-09T17:04:36.634368,1.00259865,.0001234,0.0260,55.6239,151.4285,9.1514,0,U,55841,999,1186,0,.53E-6,0
GAOFEN-13 02,2023-036A,2026-06-09T14:41:38.532192,1.00272567,.00041628,1.0191,0.1016,339.2760,287.3155,0,U,55912,999,1201,0,-.203E-5,0
SES-18,2023-038A,2026-06-09T08:12:42.108192,1.00269986,.00001172,0.0317,279.7091,77.1035,280.9865,0,U,55970,999,1202,0,-.84E-6,0
SES-19,2023-038B,2026-06-10T05:48:26.629632,1.00272033,.0001612,0.0161,312.0905,131.1994,127.5304,0,U,55971,999,1202,0,.105E-5,0
INTELSAT 40E (IS-40E),2023-052A,2026-06-09T23:10:14.683008,1.00268230,.00020252,0.0153,349.5665,136.7938,28.5205,0,U,56174,999,1175,0,0,0
VIASAT-3 F1,2023-060A,2026-06-09T14:37:33.404160,1.00271425,.00008424,0.0236,326.0666,97.1854,325.1342,0,U,56370,999,1135,0,0,0
ARCTURUS,2023-060B,2026-06-09T17:06:18.640800,1.00271986,.00022904,2.7571,80.0356,43.8815,103.2187,0,U,56371,999,1138,0,-.46E-6,0
GS-1,2023-060C,2026-06-08T15:31:07.690656,1.00277054,.00041256,2.7050,79.9310,279.9950,219.1575,0,U,56372,999,745,0,-.208E-5,0
BEIDOU-3 G4,2023-066A,2026-06-10T07:06:48.605760,1.00265812,.00044004,0.4954,329.5713,171.1334,4.5900,0,U,56564,999,1132,0,-.265E-5,0
