ZHONGXING-1E            
1 53813U 22112A   26161.14215918 -.00000131  00000+0  00000+0 0  9999
2 53813   0.0491 105.6297 0000216 209.7143  75.7405  1.00270045 13776
SES-20                  
1 53960U 22123A   26161.24821491 -.00000083  00000+0  00000+0 0  9990
2 53960   0.0333  74.6926 0001912  19.9730 150.2127  1.00268740 13460
SES-21                  
1 53961U 22123B   26160.47349999  .00000086  00000+0  00000+0 0  9995
2 53961   0.0268  34.5519 0000882  42.4615 220.2829  1.00270189  7133
GALAXY 33 (G-33)        
1 54026U 22128A   26161.23944558  .00000096  00000+0  00000+0 0  9991
2 54026   0.0097 315.2442 0001794 130.7369 125.8396  1.00271606 13670
GALAXY 34 (G-34)        
1 54027U 22128B   26159.95980211  .00000075  00000+0  00000+0 0  9991
2 54027   0.0154 329.7482 0001861 136.9348   7.2031  1.00274719 13834
EUTELSAT HOTBIRD 13F    
1 54048U 22134A   26160.13051760  .00000104  00000+0  00000+0 0  9994
2 54048   0.0486 290.4942 0002085  68.8413 318.1724  1.00271656 13295
LDPE-2                  
1 54219U 22144A   26160.62135904  .00000145  00000+0  00000+0 0  9997
2 54219   5.5939  63.7111 0001804  99.4907 153.9382  1.00529150 11763
EUTELSAT HOTBIRD 13G    
1 54225U 22146A   26161.27121299  .00000105  00000+0  00000+0 0  9996
2 54225   0.0479 233.5628 0001965 308.7900 186.9201  1.00271190  7394
ZHONGXING-19            
1 54230U 22148A   26161.22968524 -.00000064  00000+0  00000+0 0  9994
2 54230   0.0168 286.9694 0002326 178.4458  39.0580  1.00271464 13313
GALAXY 31 (G-31)        
1 54243U 22153A   26161.24466156  .00000031  00000+0  00000+0 0  9993
2 54243   0.0153 287.9232 0001233 150.1222 147.6497  1.00272139  7060
GALAXY 32 (G-32)        
1 54244U 22153B   26160.32382733 -.00000157  00000+0  00000+0 0  9990
2 54244   0.0091 331.9838 0002164  65.0548 246.2445  1.00270919 13063
EUTELSAT 10B            
1 54259U 22157A   26161.16086221  .00000085  00000+0  00000+0 0  9995
2 54259   0.0611 101.8065 0001797  11.8744 212.7759  1.00266919 12959
GALAXY 35 (G-35)        
1 54741U 22170A   26160.45862207 -.00000145  00000+0  00000+0 0  9991
2 54741   0.0337 106.4075 0002031 335.1959 248.2408  1.00271145 12811
GALAXY 36 (G-36)        
1 54742U 22170B   26161.25098825 -.00000168  00000+0  00000+0 0  9993
2 54742   0.0078  28.5141 0002605  55.3387 176.1198  1.00270518 12701
METEOSAT-12 (MTG-I1)    
1 54743U 22170C   26161.26852631  .00000009  00000+0  00000+0 0  9991
2 54743   0.7302  21.7319 0003308  71.7629 261.3806  1.00271666 12903
SHIJIAN-23 (SJ-23)      
1 55131U 23002A   26160.65737200 -.00000193  00000+0  00000+0 0  9999
2 55131   3.6971  78.4065 0003825 274.2638 295.0863  1.00089548 12431
APSTAR-6E               
1 55239U 23005A   26159.63252955 -.00000301  00000+0  00000+0 0  9997
2 55239   0.0214 248.8845 0000992 305.5776  64.2622  1.00271697 18605
USA 342                 
1 55263U 23008A   26158.27898719  .00000152  00000+0  00000+0 0  9993
2 55263   0.0030 157.3806 0000352 136.6587  85.8740  1.00272218 12415
LDPE-3A                 
1 55264U 23008B   26161.18138991 -.00000064  00000+0  00000+0 0  9990
2 55264   2.3285  81.7494 0001136  56.6105 104.8658  0.99145879 11748
ELEKTRO-L 4             
1 55506U 23016A   26160.82224429 -.00000040  00000+0  00000+0 0  9994
2 55506   0.0721 175.6888 0000805   0.3795 183.9436  1.00272782 12267
AMAZONAS NEXUS          
1 55508U 23017A   26159.54553700 -.00000266  00000+0  00000+0 0  9991
2 55508   0.0356  30.7430 0005134  32.4463 329.1618  1.00269716  6953
ZHONGXING-26            
1 55686U 23023A   26159.79629953 -.00000337  00000+0  00000+0 0  9995
2 55686   0.0661  71.5230 0004059  14.9674 222.4710  1.00269750 12148
LUCH-5X (OLYMP-K 2)     
1 55841U 23031A   26160.71153512  .00000053  00000+0  00000+0 0  9998
2 55841   0.0260  55.6239 0001234 151.4285   9.1514  1.00259865 11861
GAOFEN-13 02            
1 55912U 23036A   26160.61225153 -.00000203  00000+0  00000+0 0  9990
2 55912   1.0191   0.1016 0004162 339.2760 287.3155  1.00272567 12012
SES-18                  
1 55970U 23038A   26160.34215403 -.00000084  00000+0  00000+0 0  9990
2 55970   0.0317 279.7091 0000117  77.1035 280.9865  1.00269986 12020
SES-19                  
1 55971U 23038B   26161.24197488  .00000105  00000+0  00000+0 0  9996
2 55971   0.0161 312.0905 0001612 131.1994 127.5304  1.00272033 12020
INTELSAT 40E (IS-40E)   
1 56174U 23052A   26160.96544772  .00000000  00000+0  00000+0 0  9992
2 56174   0.0153 349.5665 0002025 136.7938  28.5205  1.00268230 11756
VIASAT-3 F1             
1 56370U 23060A   26160.60941440  .00000000  00000+0  00000+0 0  9993
2 56370   0.0236 326.0666 0000842  97.1854 325.1342  1.00271425 11353
ARCTURUS                
1 56371U 23060B   26160.71271575 -.00000046  00000+0  00000+0 0  9992
2 56371   2.7571  80.0356 0002290  43.8815 103.2187  1.00271986 11389
GS-1                    
1 56372U 23060C   26159.64661679 -.00000208  00000+0  00000+0 0  9991
2 56372   2.7050  79.9310 0004125 279.9950 219.1575  1.00277054  7453
BEIDOU-3 G4             
1 56564U 23066A   26161.29639590 -.00000265  00000+0  00000+0 0  9994
2 56564   0.4954 329.5713 0004400 171.1334   4.5900  1.00265812 11328
